start=new Date('2023-05-09T00:00:00.000Z').valueOf();
sats=[{"TLE_LINE2":"2 56119  43.0004  23.9849 0001664 265.8731 291.3169 15.48914377  1303","LAUNCH_DATE":"2023-03-29","MEAN_ELEMENT_THEORY":"SGP4","MEAN_ANOMALY":"291.3169","TIME_SYSTEM":"UTC","ELEMENT_SET_NO":"999","MEAN_MOTION_DOT":"-0.00017068","FILE":"3904305","CENTER_NAME":"EARTH","EPHEMERIS_TYPE":"0","CLASSIFICATION_TYPE":"U","COUNTRY_CODE":"US","SEMIMAJOR_AXIS":"6798.038","EPOCH":"2023-05-08T22:00:00.999936","INCLINATION":"43.0004","OBJECT_TYPE":"PAYLOAD","ECCENTRICITY":"0.00016640","BSTAR":"-0.00030321000000","OBJECT_NAME":"STARLINK-6091","RA_OF_ASC_NODE":"23.9849","MEAN_MOTION_DDOT":"0.0000000000000","APOAPSIS":"421.034","DECAY_DATE":null,"GP_ID":"231477601","TLE_LINE1":"1 56119U 23046AC  23128.91667824 -.00017068  00000-0 -30321-3 0  9992","PERIAPSIS":"418.771","PERIOD":"92.968","RCS_SIZE":"LARGE","REF_FRAME":"TEME","OBJECT_ID":"2023-046AC","REV_AT_EPOCH":"130","NORAD_CAT_ID":"56119","MEAN_MOTION":"15.48914377","SITE":"AFETR","ARG_OF_PERICENTER":"265.8731"},{"ECCENTRICITY":"0.00014240","BSTAR":"-0.00019861000000","RA_OF_ASC_NODE":"23.9948","OBJECT_NAME":"STARLINK-6079","MEAN_MOTION_DDOT":"0.0000000000000","APOAPSIS":"420.885","DECAY_DATE":null,"TLE_LINE1":"1 56120U 23046AD  23128.91667824 -.00011301  00000-0 -19861-3 0  9994","GP_ID":"231478462","PERIAPSIS":"418.949","PERIOD":"92.969","RCS_SIZE":"LARGE","REF_FRAME":"TEME","OBJECT_ID":"2023-046AD","REV_AT_EPOCH":"130","NORAD_CAT_ID":"56120","MEAN_MOTION":"15.48909562","ARG_OF_PERICENTER":"262.1830","SITE":"AFETR","TLE_LINE2":"2 56120  43.0009  23.9948 0001424 262.1830 291.6384 15.48909562  1306","TIME_SYSTEM":"UTC","LAUNCH_DATE":"2023-03-29","MEAN_ELEMENT_THEORY":"SGP4","MEAN_ANOMALY":"291.6384","ELEMENT_SET_NO":"999","MEAN_MOTION_DOT":"-0.00011301","FILE":"3904305","CENTER_NAME":"EARTH","EPHEMERIS_TYPE":"0","CLASSIFICATION_TYPE":"U","COUNTRY_CODE":"US","SEMIMAJOR_AXIS":"6798.052","INCLINATION":"43.0009","EPOCH":"2023-05-08T22:00:00.999936","OBJECT_TYPE":"PAYLOAD"},{"TLE_LINE2":"2 56121  43.0008  23.9888 0001246 263.1449 293.2065 15.48910805  1304","MEAN_ANOMALY":"293.2065","LAUNCH_DATE":"2023-03-29","MEAN_ELEMENT_THEORY":"SGP4","ELEMENT_SET_NO":"999","TIME_SYSTEM":"UTC","MEAN_MOTION_DOT":"-0.00016934","FILE":"3904305","CENTER_NAME":"EARTH","EPHEMERIS_TYPE":"0","CLASSIFICATION_TYPE":"U","COUNTRY_CODE":"US","SEMIMAJOR_AXIS":"6798.048","EPOCH":"2023-05-08T22:00:00.999936","INCLINATION":"43.0008","OBJECT_TYPE":"PAYLOAD","ECCENTRICITY":"0.00012460","BSTAR":"-0.00030082000000","RA_OF_ASC_NODE":"23.9888","OBJECT_NAME":"STARLINK-6092","MEAN_MOTION_DDOT":"0.0000000000000","APOAPSIS":"420.760","DECAY_DATE":null,"TLE_LINE1":"1 56121U 23046AE  23128.91667824 -.00016934  00000-0 -30082-3 0  9990","GP_ID":"231477100","PERIAPSIS":"419.066","RCS_SIZE":"LARGE","PERIOD":"92.969","REF_FRAME":"TEME","OBJECT_ID":"2023-046AE","REV_AT_EPOCH":"130","NORAD_CAT_ID":"56121","MEAN_MOTION":"15.48910805","SITE":"AFETR","ARG_OF_PERICENTER":"263.1449"},{"MEAN_MOTION_DOT":"-0.00946605","FILE":"3904305","TLE_LINE2":"2 56122  43.0013  28.0918 0001365 266.8044  53.9632 15.28732683  1309","LAUNCH_DATE":"2023-03-29","MEAN_ELEMENT_THEORY":"SGP4","MEAN_ANOMALY":"53.9632","TIME_SYSTEM":"UTC","ELEMENT_SET_NO":"999","EPOCH":"2023-05-08T22:00:00.999936","INCLINATION":"43.0013","OBJECT_TYPE":"PAYLOAD","CENTER_NAME":"EARTH","EPHEMERIS_TYPE":"0","COUNTRY_CODE":"US","CLASSIFICATION_TYPE":"U","SEMIMAJOR_AXIS":"6857.737","MEAN_MOTION_DDOT":"0.0000000000000","ECCENTRICITY":"0.00013650","BSTAR":"-0.03587300000000","RA_OF_ASC_NODE":"28.0918","OBJECT_NAME":"STARLINK-6094","OBJECT_ID":"2023-046AF","REV_AT_EPOCH":"130","MEAN_MOTION":"15.28732683","NORAD_CAT_ID":"56122","ARG_OF_PERICENTER":"266.8044","SITE":"AFETR","APOAPSIS":"480.538","DECAY_DATE":null,"PERIAPSIS":"478.666","TLE_LINE1":"1 56122U 23046AF  23128.91667824 -.00946605  00000-0 -35873-1 0  9999","GP_ID":"231477846","REF_FRAME":"TEME","PERIOD":"94.196","RCS_SIZE":"LARGE"},{"BSTAR":"-0.00022499000000","ECCENTRICITY":"0.00015250","RA_OF_ASC_NODE":"23.9824","OBJECT_NAME":"STARLINK-6115","MEAN_MOTION_DDOT":"0.0000000000000","DECAY_DATE":null,"APOAPSIS":"420.954","RCS_SIZE":"LARGE","PERIOD":"92.969","REF_FRAME":"TEME","TLE_LINE1":"1 56123U 23046AH  23128.91667824 -.00012756  00000-0 -22499-3 0  9993","GP_ID":"231478102","PERIAPSIS":"418.881","REV_AT_EPOCH":"130","OBJECT_ID":"2023-046AH","ARG_OF_PERICENTER":"264.5473","SITE":"AFETR","NORAD_CAT_ID":"56123","MEAN_MOTION":"15.48909346","TLE_LINE2":"2 56123  43.0013  23.9824 0001525 264.5473 295.1764 15.48909346  1309","LAUNCH_DATE":"2023-03-29","TIME_SYSTEM":"UTC","ELEMENT_SET_NO":"999","MEAN_ANOMALY":"295.1764","MEAN_ELEMENT_THEORY":"SGP4","FILE":"3904305","MEAN_MOTION_DOT":"-0.00012756","EPHEMERIS_TYPE":"0","CENTER_NAME":"EARTH","SEMIMAJOR_AXIS":"6798.052","CLASSIFICATION_TYPE":"U","COUNTRY_CODE":"US","EPOCH":"2023-05-08T22:00:00.999936","INCLINATION":"43.0013","OBJECT_TYPE":"PAYLOAD"},{"TLE_LINE2":"2 56124  43.0010  23.9910 0001355 267.6404 287.8672 15.48909072  1304","TIME_SYSTEM":"UTC","LAUNCH_DATE":"2023-03-29","MEAN_ELEMENT_THEORY":"SGP4","MEAN_ANOMALY":"287.8672","ELEMENT_SET_NO":"999","MEAN_MOTION_DOT":"-0.00009331","FILE":"3904305","CENTER_NAME":"EARTH","EPHEMERIS_TYPE":"0","COUNTRY_CODE":"US","CLASSIFICATION_TYPE":"U","SEMIMAJOR_AXIS":"6798.053","EPOCH":"2023-05-08T22:00:00.999936","INCLINATION":"43.0010","OBJECT_TYPE":"PAYLOAD","ECCENTRICITY":"0.00013550","BSTAR":"-0.00016289000000","OBJECT_NAME":"STARLINK-6126","RA_OF_ASC_NODE":"23.9910","MEAN_MOTION_DDOT":"0.0000000000000","APOAPSIS":"420.839","DECAY_DATE":null,"TLE_LINE1":"1 56124U 23046AJ  23128.91667824 -.00009331  00000-0 -16289-3 0  9999","PERIAPSIS":"418.997","GP_ID":"231478350","REF_FRAME":"TEME","RCS_SIZE":"LARGE","PERIOD":"92.969","OBJECT_ID":"2023-046AJ","REV_AT_EPOCH":"130","MEAN_MOTION":"15.48909072","NORAD_CAT_ID":"56124","SITE":"AFETR","ARG_OF_PERICENTER":"267.6404"},{"OBJECT_ID":"2023-046AK","REV_AT_EPOCH":"130","MEAN_MOTION":"15.48899978","NORAD_CAT_ID":"56125","SITE":"AFETR","ARG_OF_PERICENTER":"267.9921","APOAPSIS":"420.881","DECAY_DATE":null,"TLE_LINE1":"1 56125U 23046AK  23128.91667824  .00001211  00000-0  27963-4 0  9999","PERIAPSIS":"419.009","GP_ID":"231476600","REF_FRAME":"TEME","PERIOD":"92.969","RCS_SIZE":"LARGE","MEAN_MOTION_DDOT":"0.0000000000000","ECCENTRICITY":"0.00013770","BSTAR":"0.00002796300000","RA_OF_ASC_NODE":"23.9842","OBJECT_NAME":"STARLINK-6119","INCLINATION":"43.0014","EPOCH":"2023-05-08T22:00:00.999936","OBJECT_TYPE":"PAYLOAD","CENTER_NAME":"EARTH","EPHEMERIS_TYPE":"0","COUNTRY_CODE":"US","CLASSIFICATION_TYPE":"U","SEMIMAJOR_AXIS":"6798.080","MEAN_MOTION_DOT":"0.00001211","FILE":"3904305","TLE_LINE2":"2 56125  43.0014  23.9842 0001377 267.9921 290.8900 15.48899978  1305","LAUNCH_DATE":"2023-03-29","TIME_SYSTEM":"UTC","MEAN_ANOMALY":"290.8900","MEAN_ELEMENT_THEORY":"SGP4","ELEMENT_SET_NO":"999"},{"INCLINATION":"43.0011","EPOCH":"2023-05-08T22:00:00.999936","OBJECT_TYPE":"PAYLOAD","CENTER_NAME":"EARTH","EPHEMERIS_TYPE":"0","COUNTRY_CODE":"US","CLASSIFICATION_TYPE":"U","SEMIMAJOR_AXIS":"6798.095","MEAN_MOTION_DOT":"-0.00005058","FILE":"3904305","TLE_LINE2":"2 56126  43.0011  23.9787 0001303 278.2066 282.3766 15.48894784  1301","MEAN_ELEMENT_THEORY":"SGP4","LAUNCH_DATE":"2023-03-29","ELEMENT_SET_NO":"999","TIME_SYSTEM":"UTC","MEAN_ANOMALY":"282.3766","OBJECT_ID":"2023-046AL","REV_AT_EPOCH":"130","MEAN_MOTION":"15.48894784","NORAD_CAT_ID":"56126","ARG_OF_PERICENTER":"278.2066","SITE":"AFETR","APOAPSIS":"420.846","DECAY_DATE":null,"TLE_LINE1":"1 56126U 23046AL  23128.91667824 -.00005058  00000-0 -85522-4 0  9990","GP_ID":"231477346","PERIAPSIS":"419.074","REF_FRAME":"TEME","RCS_SIZE":"LARGE","PERIOD":"92.970","MEAN_MOTION_DDOT":"0.0000000000000","ECCENTRICITY":"0.00013030","BSTAR":"-0.00008552200000","RA_OF_ASC_NODE":"23.9787","OBJECT_NAME":"STARLINK-6124"},{"MEAN_MOTION":"15.48908836","NORAD_CAT_ID":"56127","SITE":"AFETR","ARG_OF_PERICENTER":"269.5080","OBJECT_ID":"2023-046AM","REV_AT_EPOCH":"130","TLE_LINE1":"1 56127U 23046AM  23128.91667824 -.00014002  00000-0 -24760-3 0  9996","PERIAPSIS":"418.949","GP_ID":"231477602","REF_FRAME":"TEME","PERIOD":"92.969","RCS_SIZE":"LARGE","APOAPSIS":"420.889","DECAY_DATE":null,"MEAN_MOTION_DDOT":"0.0000000000000","OBJECT_NAME":"STARLINK-6104","RA_OF_ASC_NODE":"23.9733","ECCENTRICITY":"0.00014270","BSTAR":"-0.00024760000000","OBJECT_TYPE":"PAYLOAD","EPOCH":"2023-05-08T22:00:00.999936","INCLINATION":"43.0011","COUNTRY_CODE":"US","CLASSIFICATION_TYPE":"U","SEMIMAJOR_AXIS":"6798.054","CENTER_NAME":"EARTH","EPHEMERIS_TYPE":"0","MEAN_MOTION_DOT":"-0.00014002","FILE":"3904305","LAUNCH_DATE":"2023-03-29","MEAN_ELEMENT_THEORY":"SGP4","MEAN_ANOMALY":"293.5888","ELEMENT_SET_NO":"999","TIME_SYSTEM":"UTC","TLE_LINE2":"2 56127  43.0011  23.9733 0001427 269.5080 293.5888 15.48908836  1302"},{"MEAN_MOTION_DDOT":"0.0000000000000","OBJECT_NAME":"STARLINK-6122","RA_OF_ASC_NODE":"23.9852","ECCENTRICITY":"0.00013810","BSTAR":"-0.00025452000000","NORAD_CAT_ID":"56128","MEAN_MOTION":"15.48910080","SITE":"AFETR","ARG_OF_PERICENTER":"267.2821","OBJECT_ID":"2023-046AN","REV_AT_EPOCH":"130","TLE_LINE1":"1 56128U 23046AN  23128.91667824 -.00014383  00000-0 -25452-3 0  9998","GP_ID":"231478463","PERIAPSIS":"418.976","PERIOD":"92.969","RCS_SIZE":"LARGE","REF_FRAME":"TEME","APOAPSIS":"420.854","DECAY_DATE":null,"MEAN_MOTION_DOT":"-0.00014383","FILE":"3904305","LAUNCH_DATE":"2023-03-29","TIME_SYSTEM":"UTC","MEAN_ELEMENT_THEORY":"SGP4","MEAN_ANOMALY":"290.7549","ELEMENT_SET_NO":"999","TLE_LINE2":"2 56128  43.0011  23.9852 0001381 267.2821 290.7549 15.48910080  1309","OBJECT_TYPE":"PAYLOAD","INCLINATION":"43.0011","EPOCH":"2023-05-08T22:00:00.999936","CLASSIFICATION_TYPE":"U","COUNTRY_CODE":"US","SEMIMAJOR_AXIS":"6798.050","CENTER_NAME":"EARTH","EPHEMERIS_TYPE":"0"}];
